ARIANE 40 R/B           
1 20443U 90005H   25335.41156466  .00000391  00000+0  13826-3 0  9993
2 20443  98.3259  33.9088 0010967 136.7239 223.4813 14.39784526878663
DELTA 2 R/B(1)          
1 20453U 90008B   25335.37513708  .00042990  00000+0  71635-3 0  9991
2 20453  35.6058  93.8513 0112762  74.5319 286.7834 15.44001586910877
COSMOS 2058             
1 20465U 90010A   25335.49543954  .00005043  00000+0  30598-3 0  9997
2 20465  82.4629 144.0920 0008745 320.3212  39.7376 15.10306919927410
SL-14 R/B               
1 20466U 90010B   25335.48104115  .00000572  00000+0  66649-4 0  9998
2 20466  82.5025 359.6216 0018278 262.9548  96.9588 14.83454509913928
SL-14 R/B               
1 20511U 90018B   25335.47198852  .00000624  00000+0  75427-4 0  9999
2 20511  82.5200 314.8971 0017745  58.2788 302.0153 14.82027617908035
HST                     
1 20580U 90037B   25335.36170700  .00009331  00000+0  32575-3 0  9996
2 20580  28.4702 349.9179 0002122 114.4999 245.5817 15.27801698758252
SL-16 R/B               
1 20625U 90046B   25335.50581036  .00000350  00000+0  20497-3 0  9992
2 20625  70.9974 144.1135 0012033  94.3582 265.8916 14.14996676834502
COSMOS 2084             
1 20663U 90055A   25335.33884547  .00003734  00000+0  27356-3 0  9998
2 20663  62.7910 310.8370 0033505 173.3422 186.8130 15.04903322921518
SL-6 R/B(2)             
1 20666U 90055D   25335.12457566  .00002561  00000+0  20376-3 0  9997
2 20666  62.7832 228.8793 0011710 299.7016  60.2917 15.02991899923375
SL-8 R/B                
1 20775U 90078B   25335.48311322  .00030696  00000+0  95062-3 0  9995
2 20775  82.9048 339.3820 0375741 343.7347  15.2063 14.85217830794703
SL-8 R/B                
1 21088U 91006B   25335.51485308  .00000079  00000+0  64466-4 0  9992
2 21088  82.9428 243.0614 0021597 313.0022 220.9262 13.77488084750554
OKEAN-3                 
1 21397U 91039A   25335.37232044  .00004099  00000+0  29428-3 0  9996
2 21397  82.5182  72.0482 0013383 307.3701  52.6305 15.04000649850252
