CCSDS_OMM_VERS = 2.0
CREATION_DATE  = 
ORIGINATOR     = 

OBJECT_NAME    = ARIANE 40 R/B
OBJECT_ID      = 1990-005H
CENTER_NAME    = EARTH
REF_FRAME      = TEME
TIME_SYSTEM    = UTC
MEAN_ELEMENT_THEORY = SGP/SGP4

EPOCH          = 2025-12-01T09:52:39.186624
MEAN_MOTION    = 14.39784526
ECCENTRICITY   = .0010967
INCLINATION    = 98.3259
RA_OF_ASC_NODE = 33.9088
ARG_OF_PERICENTER = 136.7239
MEAN_ANOMALY   = 223.4813

EPHEMERIS_TYPE = 0
CLASSIFICATION_TYPE = U
NORAD_CAT_ID   = 20443
ELEMENT_SET_NO = 999
REV_AT_EPOCH   = 87866
BSTAR          = .13826E-3
MEAN_MOTION_DOT = .391E-5
MEAN_MOTION_DDOT = 0

CCSDS_OMM_VERS = 2.0
CREATION_DATE  = 
ORIGINATOR     = 

OBJECT_NAME    = DELTA 2 R/B(1)
OBJECT_ID      = 1990-008B
CENTER_NAME    = EARTH
REF_FRAME      = TEME
TIME_SYSTEM    = UTC
MEAN_ELEMENT_THEORY = SGP/SGP4

EPOCH          = 2025-12-01T09:00:11.843712
MEAN_MOTION    = 15.44001586
ECCENTRICITY   = .0112762
INCLINATION    = 35.6058
RA_OF_ASC_NODE = 93.8513
ARG_OF_PERICENTER = 74.5319
MEAN_ANOMALY   = 286.7834

EPHEMERIS_TYPE = 0
CLASSIFICATION_TYPE = U
NORAD_CAT_ID   = 20453
ELEMENT_SET_NO = 999
REV_AT_EPOCH   = 91087
BSTAR          = .71635E-3
MEAN_MOTION_DOT = .4299E-3
MEAN_MOTION_DDOT = 0

CCSDS_OMM_VERS = 2.0
CREATION_DATE  = 
ORIGINATOR     = 

OBJECT_NAME    = COSMOS 2058
OBJECT_ID      = 1990-010A
CENTER_NAME    = EARTH
REF_FRAME      = TEME
TIME_SYSTEM    = UTC
MEAN_ELEMENT_THEORY = SGP/SGP4

EPOCH          = 2025-12-01T11:53:25.976256
MEAN_MOTION    = 15.10306919
ECCENTRICITY   = .0008745
INCLINATION    = 82.4629
RA_OF_ASC_NODE = 144.0920
ARG_OF_PERICENTER = 320.3212
MEAN_ANOMALY   = 39.7376

EPHEMERIS_TYPE = 0
CLASSIFICATION_TYPE = U
NORAD_CAT_ID   = 20465
ELEMENT_SET_NO = 999
REV_AT_EPOCH   = 92741
BSTAR          = .30598E-3
MEAN_MOTION_DOT = .5043E-4
MEAN_MOTION_DDOT = 0

CCSDS_OMM_VERS = 2.0
CREATION_DATE  = 
ORIGINATOR     = 

OBJECT_NAME    = SL-14 R/B
OBJECT_ID      = 1990-010B
CENTER_NAME    = EARTH
REF_FRAME      = TEME
TIME_SYSTEM    = UTC
MEAN_ELEMENT_THEORY = SGP/SGP4

EPOCH          = 2025-12-01T11:32:41.955360
MEAN_MOTION    = 14.83454509
ECCENTRICITY   = .0018278
INCLINATION    = 82.5025
RA_OF_ASC_NODE = 359.6216
ARG_OF_PERICENTER = 262.9548
MEAN_ANOMALY   = 96.9588

EPHEMERIS_TYPE = 0
CLASSIFICATION_TYPE = U
NORAD_CAT_ID   = 20466
ELEMENT_SET_NO = 999
REV_AT_EPOCH   = 91392
BSTAR          = .66649E-4
MEAN_MOTION_DOT = .572E-5
MEAN_MOTION_DDOT = 0

CCSDS_OMM_VERS = 2.0
CREATION_DATE  = 
ORIGINATOR     = 

OBJECT_NAME    = SL-14 R/B
OBJECT_ID      = 1990-018B
CENTER_NAME    = EARTH
REF_FRAME      = TEME
TIME_SYSTEM    = UTC
MEAN_ELEMENT_THEORY = SGP/SGP4

EPOCH          = 2025-12-01T11:19:39.808128
MEAN_MOTION    = 14.82027617
ECCENTRICITY   = .0017745
INCLINATION    = 82.5200
RA_OF_ASC_NODE = 314.8971
ARG_OF_PERICENTER = 58.2788
MEAN_ANOMALY   = 302.0153

EPHEMERIS_TYPE = 0
CLASSIFICATION_TYPE = U
NORAD_CAT_ID   = 20511
ELEMENT_SET_NO = 999
REV_AT_EPOCH   = 90803
BSTAR          = .75427E-4
MEAN_MOTION_DOT = .624E-5
MEAN_MOTION_DDOT = 0

CCSDS_OMM_VERS = 2.0
CREATION_DATE  = 
ORIGINATOR     = 

OBJECT_NAME    = HST
OBJECT_ID      = 1990-037B
CENTER_NAME    = EARTH
REF_FRAME      = TEME
TIME_SYSTEM    = UTC
MEAN_ELEMENT_THEORY = SGP/SGP4

EPOCH          = 2025-12-01T08:40:51.484800
MEAN_MOTION    = 15.27801698
ECCENTRICITY   = .0002122
INCLINATION    = 28.4702
RA_OF_ASC_NODE = 349.9179
ARG_OF_PERICENTER = 114.4999
MEAN_ANOMALY   = 245.5817

EPHEMERIS_TYPE = 0
CLASSIFICATION_TYPE = U
NORAD_CAT_ID   = 20580
ELEMENT_SET_NO = 999
REV_AT_EPOCH   = 75825
BSTAR          = .32575E-3
MEAN_MOTION_DOT = .9331E-4
MEAN_MOTION_DDOT = 0

CCSDS_OMM_VERS = 2.0
CREATION_DATE  = 
ORIGINATOR     = 

OBJECT_NAME    = SL-16 R/B
OBJECT_ID      = 1990-046B
CENTER_NAME    = EARTH
REF_FRAME      = TEME
TIME_SYSTEM    = UTC
MEAN_ELEMENT_THEORY = SGP/SGP4

EPOCH          = 2025-12-01T12:08:22.015104
MEAN_MOTION    = 14.14996676
ECCENTRICITY   = .0012033
INCLINATION    = 70.9974
RA_OF_ASC_NODE = 144.1135
ARG_OF_PERICENTER = 94.3582
MEAN_ANOMALY   = 265.8916

EPHEMERIS_TYPE = 0
CLASSIFICATION_TYPE = U
NORAD_CAT_ID   = 20625
ELEMENT_SET_NO = 999
REV_AT_EPOCH   = 83450
BSTAR          = .20497E-3
MEAN_MOTION_DOT = .35E-5
MEAN_MOTION_DDOT = 0

CCSDS_OMM_VERS = 2.0
CREATION_DATE  = 
ORIGINATOR     = 

OBJECT_NAME    = COSMOS 2084
OBJECT_ID      = 1990-055A
CENTER_NAME    = EARTH
REF_FRAME      = TEME
TIME_SYSTEM    = UTC
MEAN_ELEMENT_THEORY = SGP/SGP4

EPOCH          = 2025-12-01T08:07:56.248608
MEAN_MOTION    = 15.04903322
ECCENTRICITY   = .0033505
INCLINATION    = 62.7910
RA_OF_ASC_NODE = 310.8370
ARG_OF_PERICENTER = 173.3422
MEAN_ANOMALY   = 186.8130

EPHEMERIS_TYPE = 0
CLASSIFICATION_TYPE = U
NORAD_CAT_ID   = 20663
ELEMENT_SET_NO = 999
REV_AT_EPOCH   = 92151
BSTAR          = .27356E-3
MEAN_MOTION_DOT = .3734E-4
MEAN_MOTION_DDOT = 0

CCSDS_OMM_VERS = 2.0
CREATION_DATE  = 
ORIGINATOR     = 

OBJECT_NAME    = SL-6 R/B(2)
OBJECT_ID      = 1990-055D
CENTER_NAME    = EARTH
REF_FRAME      = TEME
TIME_SYSTEM    = UTC
MEAN_ELEMENT_THEORY = SGP/SGP4

EPOCH          = 2025-12-01T02:59:23.337024
MEAN_MOTION    = 15.02991899
ECCENTRICITY   = .00117105
INCLINATION    = 62.7832
RA_OF_ASC_NODE = 228.8793
ARG_OF_PERICENTER = 299.7016
MEAN_ANOMALY   = 60.2917

EPHEMERIS_TYPE = 0
CLASSIFICATION_TYPE = U
NORAD_CAT_ID   = 20666
ELEMENT_SET_NO = 999
REV_AT_EPOCH   = 92337
BSTAR          = .20375907E-3
MEAN_MOTION_DOT = .2561E-4
MEAN_MOTION_DDOT = 0

CCSDS_OMM_VERS = 2.0
CREATION_DATE  = 
ORIGINATOR     = 

OBJECT_NAME    = SL-8 R/B
OBJECT_ID      = 1990-078B
CENTER_NAME    = EARTH
REF_FRAME      = TEME
TIME_SYSTEM    = UTC
MEAN_ELEMENT_THEORY = SGP/SGP4

EPOCH          = 2025-12-01T11:35:40.982208
MEAN_MOTION    = 14.85217830
ECCENTRICITY   = .0375741
INCLINATION    = 82.9048
RA_OF_ASC_NODE = 339.3820
ARG_OF_PERICENTER = 343.7347
MEAN_ANOMALY   = 15.2063

EPHEMERIS_TYPE = 0
CLASSIFICATION_TYPE = U
NORAD_CAT_ID   = 20775
ELEMENT_SET_NO = 999
REV_AT_EPOCH   = 79470
BSTAR          = .95062E-3
MEAN_MOTION_DOT = .30696E-3
MEAN_MOTION_DDOT = 0

CCSDS_OMM_VERS = 2.0
CREATION_DATE  = 
ORIGINATOR     = 

OBJECT_NAME    = SL-8 R/B
OBJECT_ID      = 1991-006B
CENTER_NAME    = EARTH
REF_FRAME      = TEME
TIME_SYSTEM    = UTC
MEAN_ELEMENT_THEORY = SGP/SGP4

EPOCH          = 2025-12-01T12:21:23.306112
MEAN_MOTION    = 13.77488084
ECCENTRICITY   = .0021597
INCLINATION    = 82.9428
RA_OF_ASC_NODE = 243.0614
ARG_OF_PERICENTER = 313.0022
MEAN_ANOMALY   = 220.9262

EPHEMERIS_TYPE = 0
CLASSIFICATION_TYPE = U
NORAD_CAT_ID   = 21088
ELEMENT_SET_NO = 999
REV_AT_EPOCH   = 75055
BSTAR          = .64466E-4
MEAN_MOTION_DOT = .79E-6
MEAN_MOTION_DDOT = 0

CCSDS_OMM_VERS = 2.0
CREATION_DATE  = 
ORIGINATOR     = 

OBJECT_NAME    = OKEAN-3
OBJECT_ID      = 1991-039A
CENTER_NAME    = EARTH
REF_FRAME      = TEME
TIME_SYSTEM    = UTC
MEAN_ELEMENT_THEORY = SGP/SGP4

EPOCH          = 2025-12-01T08:56:08.486016
MEAN_MOTION    = 15.04000649
ECCENTRICITY   = .0013383
INCLINATION    = 82.5182
RA_OF_ASC_NODE = 72.0482
ARG_OF_PERICENTER = 307.3701
MEAN_ANOMALY   = 52.6305

EPHEMERIS_TYPE = 0
CLASSIFICATION_TYPE = U
NORAD_CAT_ID   = 21397
ELEMENT_SET_NO = 999
REV_AT_EPOCH   = 85025
BSTAR          = .29428E-3
MEAN_MOTION_DOT = .4099E-4
MEAN_MOTION_DDOT = 0

